[
    {
        "OBJECT_NAME": "STARLINK-30107",
        "OBJECT_ID": "2023-056B",
        "EPOCH": "2025-12-12T08:00:13.999968",
        "MEAN_MOTION": 15.21902281,
        "ECCENTRICITY": 0.00018936,
        "INCLINATION": 43.0002,
        "RA_OF_ASC_NODE": 324.4113,
        "ARG_OF_PERICENTER": 287.4652,
        "MEAN_ANOMALY": 283.3824,
        "EPHEMERIS_TYPE": 0,
        "CLASSIFICATION_TYPE": "U",
        "NORAD_CAT_ID": 56287,
        "ELEMENT_SET_NO": 999,
        "REV_AT_EPOCH": 549,
        "BSTAR": 0.081973206,
        "MEAN_MOTION_DOT": 0.02086563,
        "MEAN_MOTION_DDOT": 0.0
    },
    {
        "OBJECT_NAME": "STARLINK-30095",
        "OBJECT_ID": "2023-056D",
        "EPOCH": "2025-12-12T05:07:33.068352",
        "MEAN_MOTION": 15.02521849,
        "ECCENTRICITY": 0.0001484,
        "INCLINATION": 43.0037,
        "RA_OF_ASC_NODE": 299.5872,
        "ARG_OF_PERICENTER": 264.6776,
        "MEAN_ANOMALY": 95.3897,
        "EPHEMERIS_TYPE": 0,
        "CLASSIFICATION_TYPE": "U",
        "NORAD_CAT_ID": 56289,
        "ELEMENT_SET_NO": 999,
        "REV_AT_EPOCH": 14716,
        "BSTAR": -0.0004169714,
        "MEAN_MOTION_DOT": -5.829e-05,
        "MEAN_MOTION_DDOT": 0.0
    }
]