STARLINK-30107          
1 56287U 23056B   25346.33349537  .02086563  00000+0  81973-1 0  9999
2 56287  43.0002 324.4113 0001893 287.4652 283.3824 15.21902281  5491
STARLINK-30095          
1 56289U 23056D   25346.21357718 -.00005829  00000+0 -41697-3 0  9995
2 56289  43.0037 299.5872 0001484 264.6776  95.3897 15.02521849147163
